STARLINK-36590          
1 67577U 26016S   26040.91670139  .00001427  00000+0  81877-5 0  9994
2 67577  97.2764  99.9871 0001373  80.8890 101.2780 15.80819256  3589
STARLINK-36613          
1 67578U 26016T   26040.91670139 -.00042155  00000+0 -22028-3 0  9991
2 67578  97.2853  99.9919 0001410  97.2510  91.4531 15.80827307  3585
STARLINK-36571          
1 67579U 26016U   26040.91670139  .00045787  00000+0  23878-3 0  9998
2 67579  97.2852  99.9967 0001392  81.5317 115.6210 15.80792493  3588
STARLINK-36612          
1 67580U 26016V   26040.91670139 -.00001443  00000+0 -67896-5 0  9993
2 67580  97.2849  99.9989 0001199  94.4840 108.9278 15.80822069  3581
STARLINK-36632          
1 67581U 26016W   26040.91670139 -.00022804  00000+0 -11859-3 0  9994
2 67581  97.2848 100.0066 0001324  84.4339 136.9848 15.80821467  3588
STARLINK-36609          
1 67582U 26016X   26040.91670139 -.00147102  00000+0 -99881-3 0  9995
2 67582  97.2840  99.9992 0000956  80.1154 119.5904 15.75273995  3584
STARLINK-36577          
1 67583U 26016Y   26040.91670139  .00011899  00000+0  62764-4 0  9998
2 67583  97.2853 100.0021 0001309  78.3176 133.4807 15.80820366  3585
STARLINK-36419          
1 67584U 26016Z   26040.91670139  .00021749  00000+0  11404-3 0  9998
2 67584  97.2849 100.0125 0001564 111.6839 122.8489 15.80808911  3586
STARLINK-36560          
1 67585U 26016AA  26040.91670139 -.00029862  00000+0 -15557-3 0  9998
2 67585  97.2850 100.0165 0001679  75.2559 169.0585 15.80832072  3523
CZ-2C DEB               
1 67586U 26009C   26040.91585670  .00064053  00000+0  31623-2 0  9996
2 67586  97.2262 114.3316 0110727 133.1455 227.9100 15.12337546  3888
CZ-2C DEB               
1 67587U 26009D   26040.75379168  .00041685  00000+0  19994-2 0  9995
2 67587  97.6712 115.6040 0107145 139.1066 221.8266 15.13744738  3865
NAVSTAR 85 (USA 581)    
1 67588U 26017A   26039.56481726 -.00000042  00000+0  00000+0 0  9994
2 67588  55.0021  93.9172 0000855  72.5628 287.5081  2.00561463429034
