CCSDS_OMM_VERS = 2.0
CREATION_DATE  = 
ORIGINATOR     = 

OBJECT_NAME    = STARLINK-36590
OBJECT_ID      = 2026-016S
CENTER_NAME    = EARTH
REF_FRAME      = TEME
TIME_SYSTEM    = UTC
MEAN_ELEMENT_THEORY = SGP/SGP4

EPOCH          = 2026-02-09T22:00:03.000096
MEAN_MOTION    = 15.80819256
ECCENTRICITY   = .00013735
INCLINATION    = 97.2764
RA_OF_ASC_NODE = 99.9871
ARG_OF_PERICENTER = 80.8890
MEAN_ANOMALY   = 101.2780

EPHEMERIS_TYPE = 0
CLASSIFICATION_TYPE = U
NORAD_CAT_ID   = 67577
ELEMENT_SET_NO = 999
REV_AT_EPOCH   = 358
BSTAR          = .8187747E-5
MEAN_MOTION_DOT = .1427E-4
MEAN_MOTION_DDOT = 0

CCSDS_OMM_VERS = 2.0
CREATION_DATE  = 
ORIGINATOR     = 

OBJECT_NAME    = STARLINK-36613
OBJECT_ID      = 2026-016T
CENTER_NAME    = EARTH
REF_FRAME      = TEME
TIME_SYSTEM    = UTC
MEAN_ELEMENT_THEORY = SGP/SGP4

EPOCH          = 2026-02-09T22:00:03.000096
MEAN_MOTION    = 15.80827307
ECCENTRICITY   = .00014102
INCLINATION    = 97.2853
RA_OF_ASC_NODE = 99.9919
ARG_OF_PERICENTER = 97.2510
MEAN_ANOMALY   = 91.4531

EPHEMERIS_TYPE = 0
CLASSIFICATION_TYPE = U
NORAD_CAT_ID   = 67578
ELEMENT_SET_NO = 999
REV_AT_EPOCH   = 358
BSTAR          = -.22027914E-3
MEAN_MOTION_DOT = -.42155E-3
MEAN_MOTION_DDOT = 0

CCSDS_OMM_VERS = 2.0
CREATION_DATE  = 
ORIGINATOR     = 

OBJECT_NAME    = STARLINK-36571
OBJECT_ID      = 2026-016U
CENTER_NAME    = EARTH
REF_FRAME      = TEME
TIME_SYSTEM    = UTC
MEAN_ELEMENT_THEORY = SGP/SGP4

EPOCH          = 2026-02-09T22:00:03.000096
MEAN_MOTION    = 15.80792493
ECCENTRICITY   = .00013923
INCLINATION    = 97.2852
RA_OF_ASC_NODE = 99.9967
ARG_OF_PERICENTER = 81.5317
MEAN_ANOMALY   = 115.6210

EPHEMERIS_TYPE = 0
CLASSIFICATION_TYPE = U
NORAD_CAT_ID   = 67579
ELEMENT_SET_NO = 999
REV_AT_EPOCH   = 358
BSTAR          = .23877819E-3
MEAN_MOTION_DOT = .45787E-3
MEAN_MOTION_DDOT = 0

CCSDS_OMM_VERS = 2.0
CREATION_DATE  = 
ORIGINATOR     = 

OBJECT_NAME    = STARLINK-36612
OBJECT_ID      = 2026-016V
CENTER_NAME    = EARTH
REF_FRAME      = TEME
TIME_SYSTEM    = UTC
MEAN_ELEMENT_THEORY = SGP/SGP4

EPOCH          = 2026-02-09T22:00:03.000096
MEAN_MOTION    = 15.80822069
ECCENTRICITY   = .00011993
INCLINATION    = 97.2849
RA_OF_ASC_NODE = 99.9989
ARG_OF_PERICENTER = 94.4840
MEAN_ANOMALY   = 108.9278

EPHEMERIS_TYPE = 0
CLASSIFICATION_TYPE = U
NORAD_CAT_ID   = 67580
ELEMENT_SET_NO = 999
REV_AT_EPOCH   = 358
BSTAR          = -.6789629E-5
MEAN_MOTION_DOT = -.1443E-4
MEAN_MOTION_DDOT = 0

CCSDS_OMM_VERS = 2.0
CREATION_DATE  = 
ORIGINATOR     = 

OBJECT_NAME    = STARLINK-36632
OBJECT_ID      = 2026-016W
CENTER_NAME    = EARTH
REF_FRAME      = TEME
TIME_SYSTEM    = UTC
MEAN_ELEMENT_THEORY = SGP/SGP4

EPOCH          = 2026-02-09T22:00:03.000096
MEAN_MOTION    = 15.80821467
ECCENTRICITY   = .00013247
INCLINATION    = 97.2848
RA_OF_ASC_NODE = 100.0066
ARG_OF_PERICENTER = 84.4339
MEAN_ANOMALY   = 136.9848

EPHEMERIS_TYPE = 0
CLASSIFICATION_TYPE = U
NORAD_CAT_ID   = 67581
ELEMENT_SET_NO = 999
REV_AT_EPOCH   = 358
BSTAR          = -.11859284E-3
MEAN_MOTION_DOT = -.22804E-3
MEAN_MOTION_DDOT = 0

CCSDS_OMM_VERS = 2.0
CREATION_DATE  = 
ORIGINATOR     = 

OBJECT_NAME    = STARLINK-36609
OBJECT_ID      = 2026-016X
CENTER_NAME    = EARTH
REF_FRAME      = TEME
TIME_SYSTEM    = UTC
MEAN_ELEMENT_THEORY = SGP/SGP4

EPOCH          = 2026-02-09T22:00:03.000096
MEAN_MOTION    = 15.75273995
ECCENTRICITY   = .00009565
INCLINATION    = 97.2840
RA_OF_ASC_NODE = 99.9992
ARG_OF_PERICENTER = 80.1154
MEAN_ANOMALY   = 119.5904

EPHEMERIS_TYPE = 0
CLASSIFICATION_TYPE = U
NORAD_CAT_ID   = 67582
ELEMENT_SET_NO = 999
REV_AT_EPOCH   = 358
BSTAR          = -.99881149E-3
MEAN_MOTION_DOT = -.147102E-2
MEAN_MOTION_DDOT = 0

CCSDS_OMM_VERS = 2.0
CREATION_DATE  = 
ORIGINATOR     = 

OBJECT_NAME    = STARLINK-36577
OBJECT_ID      = 2026-016Y
CENTER_NAME    = EARTH
REF_FRAME      = TEME
TIME_SYSTEM    = UTC
MEAN_ELEMENT_THEORY = SGP/SGP4

EPOCH          = 2026-02-09T22:00:03.000096
MEAN_MOTION    = 15.80820366
ECCENTRICITY   = .00013092
INCLINATION    = 97.2853
RA_OF_ASC_NODE = 100.0021
ARG_OF_PERICENTER = 78.3176
MEAN_ANOMALY   = 133.4807

EPHEMERIS_TYPE = 0
CLASSIFICATION_TYPE = U
NORAD_CAT_ID   = 67583
ELEMENT_SET_NO = 999
REV_AT_EPOCH   = 358
BSTAR          = .62764363E-4
MEAN_MOTION_DOT = .11899E-3
MEAN_MOTION_DDOT = 0

CCSDS_OMM_VERS = 2.0
CREATION_DATE  = 
ORIGINATOR     = 

OBJECT_NAME    = STARLINK-36419
OBJECT_ID      = 2026-016Z
CENTER_NAME    = EARTH
REF_FRAME      = TEME
TIME_SYSTEM    = UTC
MEAN_ELEMENT_THEORY = SGP/SGP4

EPOCH          = 2026-02-09T22:00:03.000096
MEAN_MOTION    = 15.80808911
ECCENTRICITY   = .00015645
INCLINATION    = 97.2849
RA_OF_ASC_NODE = 100.0125
ARG_OF_PERICENTER = 111.6839
MEAN_ANOMALY   = 122.8489

EPHEMERIS_TYPE = 0
CLASSIFICATION_TYPE = U
NORAD_CAT_ID   = 67584
ELEMENT_SET_NO = 999
REV_AT_EPOCH   = 358
BSTAR          = .11403769E-3
MEAN_MOTION_DOT = .21749E-3
MEAN_MOTION_DDOT = 0

CCSDS_OMM_VERS = 2.0
CREATION_DATE  = 
ORIGINATOR     = 

OBJECT_NAME    = STARLINK-36560
OBJECT_ID      = 2026-016AA
CENTER_NAME    = EARTH
REF_FRAME      = TEME
TIME_SYSTEM    = UTC
MEAN_ELEMENT_THEORY = SGP/SGP4

EPOCH          = 2026-02-09T22:00:03.000096
MEAN_MOTION    = 15.80832072
ECCENTRICITY   = .00016796
INCLINATION    = 97.2850
RA_OF_ASC_NODE = 100.0165
ARG_OF_PERICENTER = 75.2559
MEAN_ANOMALY   = 169.0585

EPHEMERIS_TYPE = 0
CLASSIFICATION_TYPE = U
NORAD_CAT_ID   = 67585
ELEMENT_SET_NO = 999
REV_AT_EPOCH   = 352
BSTAR          = -.15556589E-3
MEAN_MOTION_DOT = -.29862E-3
MEAN_MOTION_DDOT = 0

CCSDS_OMM_VERS = 2.0
CREATION_DATE  = 
ORIGINATOR     = 

OBJECT_NAME    = CZ-2C DEB
OBJECT_ID      = 2026-009C
CENTER_NAME    = EARTH
REF_FRAME      = TEME
TIME_SYSTEM    = UTC
MEAN_ELEMENT_THEORY = SGP/SGP4

EPOCH          = 2026-02-09T21:58:50.018880
MEAN_MOTION    = 15.12337546
ECCENTRICITY   = .01107275
INCLINATION    = 97.2262
RA_OF_ASC_NODE = 114.3316
ARG_OF_PERICENTER = 133.1455
MEAN_ANOMALY   = 227.9100

EPHEMERIS_TYPE = 0
CLASSIFICATION_TYPE = U
NORAD_CAT_ID   = 67586
ELEMENT_SET_NO = 999
REV_AT_EPOCH   = 388
BSTAR          = .31623088E-2
MEAN_MOTION_DOT = .64053E-3
MEAN_MOTION_DDOT = 0

CCSDS_OMM_VERS = 2.0
CREATION_DATE  = 
ORIGINATOR     = 

OBJECT_NAME    = CZ-2C DEB
OBJECT_ID      = 2026-009D
CENTER_NAME    = EARTH
REF_FRAME      = TEME
TIME_SYSTEM    = UTC
MEAN_ELEMENT_THEORY = SGP/SGP4

EPOCH          = 2026-02-09T18:05:27.601152
MEAN_MOTION    = 15.13744738
ECCENTRICITY   = .01071456
INCLINATION    = 97.6712
RA_OF_ASC_NODE = 115.6040
ARG_OF_PERICENTER = 139.1066
MEAN_ANOMALY   = 221.8266

EPHEMERIS_TYPE = 0
CLASSIFICATION_TYPE = U
NORAD_CAT_ID   = 67587
ELEMENT_SET_NO = 999
REV_AT_EPOCH   = 386
BSTAR          = .19994253E-2
MEAN_MOTION_DOT = .41685E-3
MEAN_MOTION_DDOT = 0

CCSDS_OMM_VERS = 2.0
CREATION_DATE  = 
ORIGINATOR     = 

OBJECT_NAME    = NAVSTAR 85 (USA 581)
OBJECT_ID      = 2026-017A
CENTER_NAME    = EARTH
REF_FRAME      = TEME
TIME_SYSTEM    = UTC
MEAN_ELEMENT_THEORY = SGP/SGP4

EPOCH          = 2026-02-08T13:33:20.211264
MEAN_MOTION    = 2.00561463
ECCENTRICITY   = .00008556
INCLINATION    = 55.0021
RA_OF_ASC_NODE = 93.9172
ARG_OF_PERICENTER = 72.5628
MEAN_ANOMALY   = 287.5081

EPHEMERIS_TYPE = 0
CLASSIFICATION_TYPE = U
NORAD_CAT_ID   = 67588
ELEMENT_SET_NO = 999
REV_AT_EPOCH   = 42903
BSTAR          = 0
MEAN_MOTION_DOT = -.42E-6
MEAN_MOTION_DDOT = 0

